SCS-01 D                
1 63985U 25100D   26068.75607686  .00032471  00000+0  10528-2 0  9990
2 63985  97.3730 145.4097 0006346 266.2302  93.8214 15.31902149 45621
STARLINK-35311          
1 66032U 25232AD  26068.81782282  .00017724  00000+0  60910-3 0  9990
2 66032  53.1599 103.4047 0001790  89.3413 270.7793 15.30200109 23455
